UNKNOWN                 
1 82139U          25359.15395150  .00002250  00000+0  11379-2 0  9997
2 82139  99.0232  67.1786 0081655   8.1010 352.1461 14.15477713481870
UNKNOWN                 
1 82162U          25362.24728083  .00004913  00000+0  73112-2 0  9993
2 82162 100.4762 287.6309 0043760 198.8025 161.1494 13.53683980506406
UNKNOWN                 
1 82180U          25363.07765671  .00018521  00000+0  23953-2 0  9997
2 82180  65.6534 242.1858 0315057 208.9039 149.4296 14.51836807604123
UNKNOWN                 
1 82189U          25361.77186565  .00000365  00000+0  13639-3 0  9998
2 82189  74.0352  20.7542 0017076 212.8110 147.1984 14.35220858634574
UNKNOWN                 
1 82199U          25364.39466912  .00000743  00000+0  63205-3 0  9991
2 82199  82.9654 220.6093 0037806 347.0646 191.6860 13.85797979612130
UNKNOWN                 
1 82205U          25364.10981563  .00003429  00000+0  97408-3 0  9998
2 82205  63.0071 196.0644 0494469 294.8100  60.2287 13.93420599610429
UNKNOWN                 
1 82223U          25363.91996862  .00003934  00000+0  21293-2 0  9993
2 82223  99.3201 250.5449 0069125 298.6502  60.7728 14.11928216451215
UNKNOWN                 
1 82250U          25350.21638612  .00002424  00000+0  12738-2 0  9995
2 82250  98.9085 255.6660 0069566 181.7920 333.3704 14.13817190617123
UNKNOWN                 
1 82272U          25362.92796868  .00000505  00000+0  17080-2 0  9991
2 82272  67.5222 171.4173 0753072  95.9674 272.7596 12.33569308273937
UNKNOWN                 
1 82295U          25346.72562200  .00002770  00000+0  98631-3 0  9995
2 82295  66.6173 148.2102 0127087 223.3779 135.7264 14.31337782579720
UNKNOWN                 
1 82303U          25364.22702285  .00045373  00000+0  37724-1 0  9999
2 82303  81.9358 348.0982 0050139 308.9731  69.6787 13.87702286516857
UNKNOWN                 
1 82311U          25361.97357085  .00000826  00000+0  12222-2 0  9992
2 82311  99.4332  55.1141 0109896 268.4061  90.4486 13.54566003552381
